     2.100          NAVIGATION                              RINEX VERSION / TYPE
fic2rin                                 03/11/2011 00:07:49 PGM / RUN BY / DATE
                                                            END OF HEADER
 7 11  3 10 20  0  0.0  .531738623977D-05  .909494701773D-12  .000000000000D+00
     .700000000000D+01 -.535312500000D+02  .405695470273D-08  .566537682409D+00
    -.290013849735D-05  .419825629797D-02  .766478478909D-05  .515367704964D+04
     .417600000000D+06  .242143869400D-07 -.262421042012D+01  .745058059692D-08
     .974238797368D+00  .235718750000D+03 -.310633695401D+01 -.793140180329D-08
    -.152863510236D-09  .100000000000D+01  .162600000000D+04  .000000000000D+00
     .240000000000D+01  .000000000000D+00 -.107102096081D-07  .700000000000D+01
     .410406000000D+06  .400000000000D+01
 9 11  3 10 20  0  0.0  .667800195515D-04  .238742359215D-11  .000000000000D+00
     .111000000000D+03 -.620312500000D+02  .398266589402D-08 -.997697973211D-01
    -.314600765705D-05  .170710046077D-01  .824220478535D-05  .515368075180D+04
     .417600000000D+06 -.238418579102D-06 -.265322147248D+01  .633299350739D-07
     .983206236498D+00  .233593750000D+03  .155719784786D+01 -.814355349740D-08
    -.126076680171D-09  .100000000000D+01  .162600000000D+04  .000000000000D+00
     .485000000000D+01  .000000000000D+00 -.558793544769D-08  .111000000000D+03
     .410406000000D+06  .400000000000D+01
10 11  3 10 20  0  0.0 -.684470869601D-04 -.102318153949D-11  .000000000000D+00
     .126000000000D+03  .887812500000D+02  .483020119727D-08 -.203130482137D+01
     .440329313278D-05  .100992519874D-01  .627525150776D-05  .515358394623D+04
     .417600000000D+06  .987201929092D-07  .157897126224D+01 -.931322574615D-07
     .949684188467D+00  .251781250000D+03  .702255540402D+00 -.811676666734D-08
     .219652006531D-09  .100000000000D+01  .162600000000D+04  .000000000000D+00
     .485000000000D+01  .000000000000D+00 -.279396772385D-08  .126000000000D+03
     .410406000000D+06  .400000000000D+01
11 11  3 10 20  0  0.0 -.133405905217D-03 -.306954461848D-11  .000000000000D+00
     .680000000000D+02 -.198125000000D+02  .632276336847D-08  .675838873779D+00
    -.101514160633D-05  .116448004264D-01  .842288136482D-05  .515349920845D+04
     .417600000000D+06 -.149011611938D-06  .260172023586D+00  .763684511185D-07
     .888441389139D+00  .179937500000D+03  .914906317429D+00 -.899251743159D-08
    -.338942689752D-09  .100000000000D+01  .162600000000D+04  .000000000000D+00
     .240000000000D+01  .000000000000D+00 -.116415321827D-07  .680000000000D+02
     .410406000000D+06  .400000000000D+01
12 11  3 10 20  0  0.0 -.203619711101D-04  .284217094304D-11  .000000000000D+00
     .910000000000D+02 -.155312500000D+02  .427589239380D-08  .629192741889D+00
    -.877305865288D-06  .367647258099D-02  .817142426968D-05  .515378861046D+04
     .417600000000D+06  .670552253723D-07 -.156954586685D+01  .298023223877D-07
     .973931014033D+00  .227281250000D+03 -.266804633758D+00 -.790854370830D-08
     .346085844436D-09  .100000000000D+01  .162600000000D+04  .000000000000D+00
     .240000000000D+01  .000000000000D+00 -.121071934700D-07  .910000000000D+02
     .410406000000D+06  .400000000000D+01
13 11  3 10 20  0  0.0  .279552303255D-03 -.147792889038D-11  .000000000000D+00
     .350000000000D+02 -.115000000000D+02  .404945439032D-08  .308565559774D+01
    -.467523932457D-06  .458427413832D-02  .393018126488D-05  .515363381004D+04
     .417600000000D+06  .147148966789D-06  .268332048385D+01  .540167093277D-07
     .990491471980D+00  .319281250000D+03  .179333051253D+01 -.795247410961D-08
    -.140005831805D-09  .100000000000D+01  .162600000000D+04  .000000000000D+00
     .240000000000D+01  .000000000000D+00 -.111758708954D-07  .350000000000D+02
     .410406000000D+06  .400000000000D+01
14 11  3 10 20  0  0.0  .136654358357D-03  .250111042988D-11  .000000000000D+00
     .420000000000D+02  .103125000000D+01  .418946022212D-08  .305825410490D+01
     .987201929092D-07  .561299815308D-02  .342167913914D-05  .515363983727D+04
     .417600000000D+06  .000000000000D+00  .265963887716D+01 -.108033418655D-06
     .983555830031D+00  .323031250000D+03 -.208737322386D+01 -.802104839458D-08
    -.156435087578D-09  .100000000000D+01  .162600000000D+04  .000000000000D+00
     .240000000000D+01  .000000000000D+00 -.884756445885D-08  .420000000000D+02
     .410406000000D+06  .400000000000D+01
15 11  3 10 20  0  0.0 -.144520774484D-03  .318323145621D-11  .000000000000D+00
     .750000000000D+02  .625000000000D-01  .502235205827D-08  .267575735391D+01
     .745058059692D-07  .337425118778D-02  .310130417347D-05  .515358310509D+04
     .417600000000D+06 -.987201929092D-07  .258637309876D+01  .149011611938D-07
     .950758406287D+00  .315937500000D+03 -.875867077208D-01 -.846428114271D-08
    -.115004790411D-09  .100000000000D+01  .162600000000D+04  .000000000000D+00
     .240000000000D+01  .000000000000D+00 -.977888703346D-08  .750000000000D+02
     .410406000000D+06  .400000000000D+01
16 11  3 10 20  0  0.0 -.156674534082D-03 -.284217094304D-11  .000000000000D+00
     .880000000000D+02 -.182187500000D+02  .416410202299D-08 -.174771870176D+01
    -.981613993645D-06  .626243196893D-02  .802241265774D-05  .515376096916D+04
     .417600000000D+06 -.279396772385D-07 -.155178384552D+01 -.353902578354D-07
     .974982417645D+00  .235687500000D+03 -.159483832627D+00 -.780532512312D-08
     .417160233541D-09  .100000000000D+01  .162600000000D+04  .000000000000D+00
     .240000000000D+01  .000000000000D+00 -.977888703346D-08  .880000000000D+02
     .410406000000D+06  .400000000000D+01
17 11  3 10 20  0  0.0  .183794647455D-03  .227373675443D-12  .000000000000D+00
     .510000000000D+02 -.293437500000D+02  .463412160119D-08 -.282956878313D+01
    -.149756669998D-05  .617070926819D-02  .640563666821D-05  .515372261429D+04
     .417600000000D+06  .186264514923D-08 -.508698404416D+00 -.109896063805D-06
     .961140418442D+00  .255656250000D+03 -.243020436870D+01 -.799783314185D-08
     .714315468392D-11  .100000000000D+01  .162600000000D+04  .000000000000D+00
     .240000000000D+01  .000000000000D+00 -.102445483208D-07  .510000000000D+02
     .410406000000D+06  .400000000000D+01
18 11  3 10 20  0  0.0  .125766731799D-03  .204636307899D-11  .000000000000D+00
     .360000000000D+02  .100781250000D+03  .514450000336D-08 -.147542562508D+01
     .526197254658D-05  .119676131289D-01  .685825943947D-05  .515377004051D+04
     .417600000000D+06  .275671482086D-06  .157458191991D+01  .372529029846D-08
     .933601406920D+00  .230250000000D+03 -.227257941341D+01 -.829248827256D-08
     .151792037033D-09  .100000000000D+01  .162600000000D+04  .000000000000D+00
     .240000000000D+01  .000000000000D+00 -.107102096081D-07  .360000000000D+02
     .410406000000D+06  .400000000000D+01
19 11  3 10 20  0  0.0 -.118897762150D-03 -.375166564481D-11  .000000000000D+00
     .450000000000D+02 -.234687500000D+02  .476591280511D-08  .275128798404D+01
    -.114180147648D-05  .707447202876D-02  .627338886261D-05  .515362596512D+04
     .417600000000D+06 -.135973095894D-06 -.454451719681D+00  .260770320892D-07
     .958709244625D+00  .257031250000D+03 -.125402800673D-01 -.806783605776D-08
     .892894335490D-11  .100000000000D+01  .162600000000D+04  .000000000000D+00
     .240000000000D+01  .000000000000D+00 -.149011611938D-07  .450000000000D+02
     .410406000000D+06  .400000000000D+01
20 11  3 10 20  0  0.0  .486890785396D-04  .000000000000D+00  .000000000000D+00
     .860000000000D+02  .837187500000D+02  .523521806785D-08 -.110102924460D+01
     .447034835815D-05  .471248012036D-02  .723451375961D-05  .515371207809D+04
     .417600000000D+06  .931322574615D-08  .152061895936D+01  .931322574615D-07
     .933721925037D+00  .229187500000D+03  .127990274705D+01 -.842749389609D-08
     .108575951196D-09  .100000000000D+01  .162600000000D+04  .000000000000D+00
     .240000000000D+01  .000000000000D+00 -.791624188423D-08  .860000000000D+02
     .410406000000D+06  .400000000000D+01
21 11  3 10 20  0  0.0 -.129473395646D-03 -.261479726760D-11  .000000000000D+00
     .930000000000D+02  .145625000000D+02  .523736101425D-08 -.190252028075D+00
     .895932316780D-06  .174081507139D-01  .943243503571D-05  .515378115273D+04
     .417600000000D+06  .707805156708D-07  .519699709293D+00  .225380063057D-06
     .932230658532D+00  .184562500000D+03 -.239661630649D+01 -.853106963901D-08
    -.219294848796D-09  .100000000000D+01  .162600000000D+04  .000000000000D+00
     .240000000000D+01  .000000000000D+00 -.116415321827D-07  .930000000000D+02
     .410406000000D+06  .400000000000D+01
22 11  3 10 20  0  0.0  .152043532580D-03 -.682121026330D-12  .000000000000D+00
     .530000000000D+02  .956250000000D+02  .516592946741D-08 -.228462722991D+01
     .488571822643D-05  .539614306763D-02  .713579356670D-05  .515371480179D+04
     .417600000000D+06  .726431608200D-07  .157887641687D+01  .558793544769D-08
     .931294904445D+00  .224218750000D+03 -.196291881981D+01 -.831141763248D-08
     .151434879299D-09  .100000000000D+01  .162600000000D+04  .000000000000D+00
     .240000000000D+01  .000000000000D+00 -.172294676304D-07  .530000000000D+02
     .410406000000D+06  .400000000000D+01
23 11  3 10 20  0  0.0  .320960767567D-03 -.250111042988D-11  .000000000000D+00
     .570000000000D+02  .281250000000D+01  .467662337156D-08  .231167271431D+01
     .204890966415D-06  .702433497645D-02  .348128378391D-05  .515358205795D+04
     .417600000000D+06 -.968575477600D-07  .261556894547D+01  .169500708580D-06
     .965220548167D+00  .317375000000D+03  .313018827089D+01 -.827248743945D-08
    -.127148153374D-09  .100000000000D+01  .162600000000D+04  .000000000000D+00
     .240000000000D+01  .000000000000D+00 -.200234353542D-07  .570000000000D+02
     .410406000000D+06  .400000000000D+01
